NORAD_CAT_ID,OBJECT_NAME,OBJECT_TYPE,EPOCH,MEAN_MOTION,ECCENTRICITY,INCLINATION,RA_OF_ASC_NODE,ARG_OF_PERICENTER,MEAN_ANOMALY,BSTAR,MEAN_MOTION_DOT,MEAN_MOTION_DDOT,TLE_LINE0,TLE_LINE1,TLE_LINE2,SEMIMAJOR_AXIS,PERIOD,APOGEE,PERIGEE,DECAYED
53533.0,STARLINK-4493,PAYLOAD,2024-06-29 13:54:17,15.08817443,0.0001241,53.2177,328.9187,79.5735,280.5397,-0.00026167,-4.447e-05,0.0,0 STARLINK-4493,1 53533U 22101G   24181.57936803 -.00004447  00000-0 -26167-3 0  9998,2 53533  53.2177 328.9187 0001241  79.5735 280.5397 15.08817443102859,6917.949,95.439,540.673,538.956,0.0
53533.0,STARLINK-4493,PAYLOAD,2024-06-29 17:05:03,15.08820022,0.0001202,53.2174,328.3251,92.5338,267.5792,-0.00018914,-3.295e-05,0.0,0 STARLINK-4493,1 53533U 22101G   24181.71184898 -.00003295  00000-0 -18914-3 0  9994,2 53533  53.2174 328.3251 0001202  92.5338 267.5792 15.08820022102876,6917.941,95.439,540.638,538.975,0.0
53533.0,STARLINK-4493,PAYLOAD,2024-06-30 02:37:21,15.08836698,0.0001252,53.2167,326.5327,54.8421,305.2689,5.414e-05,5.74e-06,0.0,0 STARLINK-4493,1 53533U 22101G   24182.10928186  .00000574  00000-0  54140-4 0  9991,2 53533  53.2167 326.5327 0001252  54.8421 305.2689 15.08836698102939,6917.89,95.438,540.622,538.889,0.0
53533.0,STARLINK-4493,PAYLOAD,2024-06-30 13:45:04,15.08833703,0.0001448,53.2171,324.4572,84.0072,276.1085,7.3652e-05,8.84e-06,0.0,0 STARLINK-4493,1 53533U 22101G   24182.57296650  .00000884  00000-0  73652-4 0  9999,2 53533  53.2171 324.4572 0001448  84.0072 276.1085 15.08833703103006,6917.9,95.438,540.766,538.763,0.0
53533.0,STARLINK-4493,PAYLOAD,2024-06-30 18:31:12,15.0885016,0.0001076,53.2159,323.5614,60.0242,300.0857,4.505e-05,4.29e-06,0.0,0 STARLINK-4493,1 53533U 22101G   24182.77167740  .00000429  00000-0  45050-4 0  9994,2 53533  53.2159 323.5614 0001076  60.0242 300.0857 15.08850160103032,6917.849,95.437,540.459,538.97,0.0
53533.0,STARLINK-4493,PAYLOAD,2024-07-01 08:49:42,15.08837298,0.0001988,53.2152,320.8892,74.0926,286.0285,0.00040784,6.208e-05,0.0,0 STARLINK-4493,1 53533U 22101G   24183.36784768  .00006208  00000-0  40784-3 0  9994,2 53533  53.2152 320.8892 0001988  74.0926 286.0285 15.08837298103124,6917.889,95.438,541.129,538.378,0.0
53533.0,STARLINK-4493,PAYLOAD,2024-07-01 13:35:51,15.08828992,0.0001331,53.2156,319.9967,75.1749,284.939,0.00021716,3.169e-05,0.0,0 STARLINK-4493,1 53533U 22101G   24183.56657077  .00003169  00000-0  21716-3 0  9995,2 53533  53.2156 319.9967 0001331  75.1749 284.9390 15.08828992103155,6917.914,95.438,540.7,538.858,0.0
53533.0,STARLINK-4493,PAYLOAD,2024-07-01 16:46:37,15.08846599,8.88e-05,53.2164,319.3961,80.8197,279.2895,0.00028548,4.259e-05,0.0,0 STARLINK-4493,1 53533U 22101G   24183.69904140  .00004259  00000-0  28548-3 0  9996,2 53533  53.2164 319.3961 0000888  80.8197 279.2895 15.08846599103170,6917.86,95.437,540.34,539.111,0.0
53533.0,STARLINK-4493,PAYLOAD,2024-07-02 13:26:38,15.08832615,0.0001199,53.2154,315.5366,78.1849,281.9277,-5.1408e-05,-1.106e-05,0.0,0 STARLINK-4493,1 53533U 22101G   24184.56016913 -.00001106  00000-0 -51408-4 0  9997,2 53533  53.2154 315.5366 0001199  78.1849 281.9277 15.08832615103309,6917.903,95.438,540.597,538.939,0.0
53533.0,STARLINK-4493,PAYLOAD,2024-07-02 15:02:01,15.08832511,0.0001024,53.2149,315.239,79.7536,280.3571,-4.778e-05,-1.048e-05,0.0,0 STARLINK-4493,1 53533U 22101G   24184.62640885 -.00001048  00000-0 -47780-4 0  9998,2 53533  53.2149 315.2390 0001024  79.7536 280.3571 15.08832511103310,6917.903,95.438,540.477,539.06,0.0
53533.0,STARLINK-4493,PAYLOAD,2024-07-02 18:12:47,15.08841438,0.0001132,53.2162,314.6413,89.8348,270.2774,7.7855e-05,9.52e-06,0.0,0 STARLINK-4493,1 53533U 22101G   24184.75888561  .00000952  00000-0  77855-4 0  9994,2 53533  53.2162 314.6413 0001132  89.8348 270.2774 15.08841438103330,6917.876,95.437,540.524,538.958,0.0
53533.0,STARLINK-4493,PAYLOAD,2024-07-03 02:09:43,15.08849182,0.0001108,53.2165,313.1556,88.4829,271.629,0.0002569,3.804e-05,0.0,0 STARLINK-4493,1 53533U 22101G   24185.09008309  .00003804  00000-0  25690-3 0  9994,2 53533  53.2165 313.1556 0001108  88.4829 271.6290 15.08849182103384,6917.852,95.437,540.484,538.951,0.0
53533.0,STARLINK-4493,PAYLOAD,2024-07-03 13:17:25,15.08840775,0.0001517,53.2156,311.075,88.9734,271.1432,0.00019418,2.804e-05,0.0,0 STARLINK-4493,1 53533U 22101G   24185.55376911  .00002804  00000-0  19418-3 0  9992,2 53533  53.2156 311.0750 0001517  88.9734 271.1432 15.08840775103451,6917.878,95.438,540.792,538.694,0.0
53533.0,STARLINK-4493,PAYLOAD,2024-07-03 14:52:48,15.08843661,0.0001337,53.2174,310.7757,109.246,250.8676,0.0001567,2.207e-05,0.0,0 STARLINK-4493,1 53533U 22101G   24185.62000634  .00002207  00000-0  15670-3 0  9999,2 53533  53.2174 310.7757 0001337 109.2460 250.8676 15.08843661103469,6917.869,95.437,540.659,538.809,0.0
53533.0,STARLINK-4493,PAYLOAD,2024-07-04 14:43:35,15.08839988,0.0001283,53.2178,306.3164,95.9643,264.1495,0.00010421,1.371e-05,0.0,0 STARLINK-4493,1 53533U 22101G   24186.61360964  .00001371  00000-0  10421-3 0  9994,2 53533  53.2178 306.3164 0001283  95.9643 264.1495 15.08839988103611,6917.88,95.438,540.633,538.858,0.0
53533.0,STARLINK-4493,PAYLOAD,2024-07-05 14:34:23,15.08837843,0.0001162,53.2174,301.8551,97.4403,262.6721,0.00037518,5.688e-05,0.0,0 STARLINK-4493,1 53533U 22101G   24187.60721152  .00005688  00000-0  37518-3 0  9995,2 53533  53.2174 301.8551 0001162  97.4403 262.6721 15.08837843103763,6917.887,95.438,540.556,538.948,0.0
53533.0,STARLINK-4493,PAYLOAD,2024-07-06 00:06:40,15.08860937,0.0001126,53.2182,300.0707,92.8689,267.2432,0.00025973,3.85e-05,0.0,0 STARLINK-4493,1 53533U 22101G   24188.00463563  .00003850  00000-0  25973-3 0  9990,2 53533  53.2182 300.0707 0001126  92.8689 267.2432 15.08860937103828,6917.816,95.436,540.46,538.902,0.0
53533.0,STARLINK-4493,PAYLOAD,2024-07-06 12:49:47,15.0882891,0.0001418,53.2179,297.6923,78.0156,282.0995,-9.548e-05,-1.807e-05,0.0,0 STARLINK-4493,1 53533U 22101G   24188.53457362 -.00001807  00000-0 -95480-4 0  9991,2 53533  53.2179 297.6923 0001418  78.0156 282.0995 15.08828910103907,6917.914,95.438,540.76,538.798,0.0
53533.0,STARLINK-4493,PAYLOAD,2024-07-06 14:25:10,15.08834411,0.0001396,53.2185,297.3997,96.61,263.5051,9.3935e-06,-1.38e-06,0.0,0 STARLINK-4493,1 53533U 22101G   24188.60081095 -.00000138  00000-0  93935-5 0  9994,2 53533  53.2185 297.3997 0001396  96.6100 263.5051 15.08834411103913,6917.897,95.438,540.728,538.797,0.0
53533.0,STARLINK-4493,PAYLOAD,2024-07-06 23:57:28,15.08844325,0.0001517,53.2188,295.6157,100.521,259.5953,9.9963e-05,1.303e-05,0.0,0 STARLINK-4493,1 53533U 22101G   24188.99824596  .00001303  00000-0  99963-4 0  9997,2 53533  53.2188 295.6157 0001517 100.5210 259.5953 15.08844325103974,6917.867,95.437,540.782,538.683,0.0
53533.0,STARLINK-4493,PAYLOAD,2024-07-08 12:31:21,15.08841809,0.0001615,53.2184,288.7781,111.2677,248.8488,0.00020535,2.982e-05,0.0,0 STARLINK-4493,1 53533U 22101G   24190.52177098  .00002982  00000-0  20535-3 0  9999,2 53533  53.2184 288.7781 0001615 111.2677 248.8488 15.08841809104206,6917.875,95.437,540.857,538.623,0.0
53533.0,STARLINK-4493,PAYLOAD,2024-07-09 12:22:08,15.08837335,0.000186,53.2193,284.3047,95.0008,265.1197,1.1906e-05,-9.9e-07,0.0,0 STARLINK-4493,1 53533U 22101G   24191.51537245 -.00000099  00000-0  11906-4 0  9994,2 53533  53.2193 284.3047 0001860  95.0008 265.1197 15.08837335104356,6917.889,95.438,541.04,538.467,0.0
53533.0,STARLINK-4493,PAYLOAD,2024-07-09 15:32:54,15.08837397,0.0001892,53.2198,283.7107,98.5048,261.6158,5.4196e-05,5.74e-06,0.0,0 STARLINK-4493,1 53533U 22101G   24191.64785391  .00000574  00000-0  54196-4 0  9990,2 53533  53.2198 283.7107 0001892  98.5048 261.6158 15.08837397104376,6917.888,95.438,541.062,538.444,0.0
53533.0,STARLINK-4493,PAYLOAD,2024-07-10 12:12:55,15.08840745,0.0001518,53.2178,279.8489,103.172,256.9442,4.7833e-07,-2.8e-06,0.0,0 STARLINK-4493,1 53533U 22101G   24192.50897226 -.00000280  00000-0  47833-6 0  9994,2 53533  53.2178 279.8489 0001518 103.1720 256.9442 15.08840745104507,6917.878,95.438,540.793,538.693,0.0
53533.0,STARLINK-4493,PAYLOAD,2024-07-11 12:03:42,15.08844206,0.0001589,53.2176,275.3883,108.7416,251.3748,0.00015044,2.107e-05,0.0,0 STARLINK-4493,1 53533U 22101G   24193.50257034  .00002107  00000-0  15044-3 0  9997,2 53533  53.2176 275.3883 0001589 108.7416 251.3748 15.08844206104655,6917.868,95.437,540.832,538.633,0.0
53533.0,STARLINK-4493,PAYLOAD,2024-07-12 11:54:29,15.08836919,0.0001296,53.2174,270.9313,94.4285,265.6855,2.3325e-05,8.3e-07,0.0,0 STARLINK-4493,1 53533U 22101G   24194.49617624  .00000083  00000-0  23325-4 0  9994,2 53533  53.2174 270.9313 0001296  94.4285 265.6855 15.08836919104808,6917.89,95.438,540.651,538.858,0.0
53533.0,STARLINK-4493,PAYLOAD,2024-07-13 11:45:16,15.08839712,0.0001233,53.2171,266.4702,91.1694,268.944,8.7919e-06,-1.48e-06,0.0,0 STARLINK-4493,1 53533U 22101G   24195.48977521 -.00000148  00000-0  87919-5 0  9992,2 53533  53.2171 266.4702 0001233  91.1694 268.9440 15.08839712104952,6917.881,95.438,540.599,538.893,0.0
53533.0,STARLINK-4493,PAYLOAD,2024-07-13 21:17:34,15.0884743,0.000121,53.2169,264.6857,90.5913,269.5218,8.5512e-05,1.074e-05,0.0,0 STARLINK-4493,1 53533U 22101G   24195.88720794  .00001074  00000-0  85512-4 0  9998,2 53533  53.2169 264.6857 0001210  90.5913 269.5218 15.08847430105016,6917.858,95.437,540.56,538.886,0.0
53533.0,STARLINK-4493,PAYLOAD,2024-07-14 05:14:31,15.08832947,0.0001469,53.2188,263.2046,102.6852,257.4305,9.2475e-05,1.184e-05,0.0,0 STARLINK-4493,1 53533U 22101G   24196.21841790  .00001184  00000-0  92475-4 0  9994,2 53533  53.2188 263.2046 0001469 102.6852 257.4305 15.08832947105060,6917.902,95.438,540.783,538.751,0.0
53533.0,STARLINK-4493,PAYLOAD,2024-07-14 11:36:03,15.08833276,0.0001412,53.2184,262.0161,104.0004,256.1145,0.00011222,1.498e-05,0.0,0 STARLINK-4493,1 53533U 22101G   24196.48337779  .00001498  00000-0  11222-3 0  9998,2 53533  53.2184 262.0161 0001412 104.0004 256.1145 15.08833276105103,6917.901,95.438,540.743,538.789,0.0
